#dP2023 12 22  0  0  0.00000000      96 __u+U IGS20 FIT  IAC
## 2293 432000.00000000   900.00000000 60300 0.0000000000000
+  119   C06C07C08C09C10C11C12C13C14C16C19C20C21C22C23C24C25
+        C26C27C28C29C30C32C33C34C35C36C37C38C39C40C41C42C43
+        C44C45C46E02E03E04E05E07E08E09E10E11E12E13E14E15E18
+        E19E21E24E25E26E27E30E31E33E34E36G01G02G03G04G05G07
+        G08G09G10G11G12G13G14G15G16G17G18G19G20G21G22G23G24
+        G25G26G27G28G29G30G31G32J02J03J04R01R02R03R04R05R07
+        R08R09R11R12R13R14R15R16R17R18R19R20R21R22R24R25R26
++         7  6  8  7  8  8  8  8  8  7  7  7  7  7  7  7  8
++         8  7  5  6  6  8  8  6  7  8  6  8 15  9  7  6  7
++         6  6  7  7  6  6  6  7  7  6  7  7  7  7  5  7  7
++         6  7  7  7  7  6  7  6  7  6  6  6  7  6  7  6  6
++         6  7  7  5  6  6  6  6  7  6  7  6  6  6  6  6  7
++         6  7  7  6  6  6  7  6  9  8  8  7  7  8  7  7  6
++         7  8  6  6  6  8  7  7  6  7  7  8  6  6  7  7  6
%c M  cc GPS ccc cccc cccc cccc cccc ccccc ccccc ccccc ccccc
%c cc cc ccc ccc cccc cccc cccc cccc ccccc ccccc ccccc ccccc
%f  0.0000000  0.000000000  0.00000000000  0.000000000000000
%f  0.0000000  0.000000000  0.00000000000  0.000000000000000
%i    0    0    0    0      0      0      0      0         0
%i    0    0    0    0      0      0      0      0         0
/* INFORMATION & ANALYSIS CENTER (IAC)      ULTRA-RAPID DATA
/* S/V CLOCKS ARE ALIGNED TO GNSS TIME                      
/* G:C1WC2W R:C1PC2P E:C1XC5X C:C2IC6I J:C1CC2S             
/* PCV:IGS20_2290 OL/AL:FES2004  NONE     YN ORB:CoN CLK:CoN
*  2023 12 22 11  0  0.00000000
PC06  -9461.348862  40188.191563  -7714.608260    221.241742
PC07  -3927.622342  28225.096024  31196.949073   -514.781078
PC08 -18219.550761  26273.312555 -27609.929810    164.332972
PC09  -2817.950803  41548.722894   4273.629698   -250.728711
PC10   4166.230361  30423.760563  29407.109609    -63.125575
PC11  -7048.377126 -26821.552070   3126.851516    319.141892
PC12   5296.004376 -23191.009655 -14541.141747    818.305494
PC13 -12000.132540  27067.070484 -29982.067430    398.704743
PC14 -11917.500777 -17012.122511  18622.972845   -195.875144
PC16  -9871.572794  39786.587184  -8891.017531   -239.623803
PC19  20595.903885  14771.903219 -11673.960120   -948.529845
PC20   3418.709181  16727.195995 -22070.609454      5.983753
PC21  17467.404276  -8652.415371  19987.783179   -966.552461
PC22  26922.388664   4269.417715   6017.116619   -176.965488
PC23 -21663.321257   2804.800264 -17377.612894   -800.219872
PC24   8494.456260 -22161.107043 -14677.982067    716.639545
PC25 -10162.370182 -12830.722419 -22615.967709    283.917166
PC26  20674.955708 -18676.023764   1163.092391   -223.796518
PC27 -10707.454096  16415.907167  19845.893515    245.788934
PC28 -16468.143045  -1984.252385  22450.473039    186.084762
PC29  13509.372151  21784.477767 -11029.016573    217.893936
PC30   1659.065018  26920.515582   7114.441010    -11.130480
PC32 -17482.193256   8727.617466 -19908.745974   -545.205822
PC33 -20574.237008 -14704.099018  11789.942989   -941.777330
PC34  -2688.108927 -27196.819189  -5708.038991    330.392410
PC35  16597.860923   1287.793950 -22398.598350    474.959778
PC36   9147.737589  13666.075520  22560.023777    -82.916111
PC37 -21368.049907  17886.805515  -1768.579752   -931.634210
PC38 -23903.345269  28032.104810 -20639.044931    125.649709
PC39 -11203.975111  37636.377684 -14981.615665     -6.246876
PC40  -7574.115110  22830.089637  34684.719739    -48.873154
PC41 -26996.100274  -4724.480116  -5192.889248   -874.733781
PC42  -1587.736100 -16500.873454  22485.891779   -476.971551
PC43 -13128.074768 -22424.279550  10200.572874     53.313973
PC44  10298.954098 -16706.162360 -19859.456731    330.478788
PC45  21753.035686  -3235.123367  17151.928998    -57.031110
PC46  -7712.734399  21936.905744  15447.872049   -109.513313
PE02  13969.868867  13385.039935  22388.763148     88.701408
PE03  17486.170872  23777.756304  -2291.419144    -81.815360
PE04 -22838.346746 -10651.981339 -15529.621598   -285.869820
PE05   2033.204442  22948.084692 -18584.537084   4702.922681
PE07  15031.425660  -8296.115400  24112.234973    -94.365631
PE08  22821.007598  11252.779556  15124.029171   -196.080509
PE09 -15000.154655   8102.284953 -24199.545206   -271.966451
PE10 -18182.076814   9361.320526  21404.074369   -588.273714
PE11 -17161.182752  19504.296039  14174.440199   3272.963536
PE12 -16513.901072  -1198.333797  24539.856154   -829.623843
PE13  17265.186051 -18963.468753 -14773.716076    -19.735970
PE14  21687.239333  23008.802207  -4494.028954    -11.192672
PE15  16272.551195   1724.915115 -24652.494555    -76.042452
PE18 -13763.517019 -19829.629272   -366.169334    123.329000
PE19 -15933.078915 -24531.124363   4560.748417   -965.119761
PE21   7395.589119 -17193.825523 -22934.202802   -570.088417
PE24 -25794.452335  10852.962647   9670.211491   -499.733372
PE25  -7850.791612  17172.772204  22798.891974     -1.612875
PE26   7698.652006 -28267.317816   4229.064252    316.978488
PE27  25462.891265 -11176.580120 -10124.433956   -230.356228
PE30  28215.837938   1662.361662   8746.362429   -762.279406
PE31 -28325.541164  -1354.537831  -8501.739413    -12.205743
PE33  -5371.163667 -21520.174480  19608.107909      4.640202
PE34   5798.404922  21094.092896 -19940.605544    -84.744532
PE36  -8163.397073  28224.309216  -3558.294162   -161.183458
PG01 -13652.240491  21180.027612   7485.990339    164.384402
PG02 -15145.470969  16380.588172  14748.651651   -512.001730
PG03 -20353.809190  11774.415616 -12383.837221     72.721960
PG04  -9294.900971  12426.660016 -21529.816487    246.130683
PG05  25952.152872  -5869.723985    301.890864   -155.070551
PG07  -3881.073151  25138.164460   7204.634708    -18.221697
PG08 -15686.208012   4566.187320  20930.207623   -158.254610
PG09   1967.102147  20427.227078 -16916.653479     34.590186
PG10 -12684.130317 -11714.543603  20473.959067    -66.313732
PG11  15326.401973   2079.643705 -21561.624882   -510.682277
PG12  21247.366036 -10565.877250 -12139.825305   -460.034495
PG13  18446.007634   6766.747074  17770.294966    608.208090
PG14   8549.267213  14004.004552  20939.271555    277.774798
PG15  15342.968372  -6369.327036  20274.472127    109.463381
PG16 -26308.131993  -1534.863718  -5239.322361   -399.348649
PG17  11841.598477  23053.826409   5882.637816    721.534236
PG18   3758.023682 -24872.275503   8244.463667   -512.816921
PG19  16853.277724  20417.922266  -4024.195144    415.945557
PG20  23393.830278   1010.930561 -12311.193365    395.387270
PG21 -15947.218619  12050.514220  17493.429085    140.792312
PG22  15419.164976  11714.962736  18487.811665     61.611600
PG23   1396.526099 -15218.934881  21719.023404    120.714803
PG24  14968.638927 -16504.900256  13730.762030   -398.602263
PG25   9963.561273 -15733.319412 -19166.266548    482.447975
PG26 -22297.320823  -5127.762554 -13926.912116    207.143658
PG27 -20523.364618  -9134.528568  14233.154031    -86.059396
PG28  -8845.492448 -16022.259618 -19272.732901    -76.840786
PG29    459.972677 -19962.255959 -17508.267533   -609.547925
PG30   4125.598806  21226.625962  15367.615946   -454.554032
PG31 -13773.465935  -7119.941416 -21754.018964   -226.785145
PG32 -15823.749853 -21358.757885   2413.989783   -598.647966
PJ02 -31117.180787  23684.259541  20812.564086     -0.697662
PJ03 -27808.124715  28128.120607  19570.625917    -13.030288
PJ04 -27080.590367  20502.672056 -19843.344456     74.790073
PR01  14684.370417  -3627.187014  20540.915848     72.735024
PR02  -2263.566848 -12885.263938  21954.298610    -22.337358
PR03 -17738.593027 -15047.227756  10589.000677     91.399380
PR04 -22974.549860  -9132.982930  -6294.983960    216.421707
PR05 -15984.908015   1728.293611 -19804.208715    124.204257
PR07  18249.799760  14877.393573  -9702.507429     71.906809
PR08  23025.197868   8733.848482   6630.379079    -73.755879
PR09  -9939.710567  16572.901500  16619.267998    160.134118
PR11  18665.769566  -2299.925051  17246.111837   -222.843380
PR12  21427.413583 -13817.138306   -368.077576     34.757569
PR13  12246.924894 -16593.230324 -15026.739863    -42.525801
PR14  -6265.468656  -9219.099361 -22937.886822     25.817245
PR15 -19460.577423   3112.374527 -16180.590535     83.755306
PR16 -21413.699541  13830.668644     94.410667     21.784401
PR17  -6319.978948 -21339.157901  12444.753740     45.690685
PR18 -10230.130248  -6784.349797  22391.138619    118.150891
PR19  -9721.864412   9541.514945  21574.555618   -259.208826
PR20  -2932.592268  24632.078475   5870.721629   -105.571190
PR21   6285.547156  21118.057179 -12867.354312    -62.928918
PR22  10534.693187   5918.458519 -22430.663881     99.485079
PR24   1764.363071 -24902.931754  -5173.728934    -36.907498
PR25   5578.711130  21602.603156 -12372.717206      4.237885
PR26  23141.873101   9043.289646   5833.250184    -22.785841
EOF
